[{"OBJECT_NAME":"STRIX-1","OBJECT_ID":"2022-113A","EPOCH":"2026-03-09T22:33:41.440608","MEAN_MOTION":15.35318085,"ECCENTRICITY":0.00036327,"INCLINATION":97.4624,"RA_OF_ASC_NODE":129.4671,"ARG_OF_PERICENTER":211.3613,"MEAN_ANOMALY":148.7414,"EPHEMERIS_TYPE":0,"CLASSIFICATION_TYPE":"U","NORAD_CAT_ID":53815,"ELEMENT_SET_NO":999,"REV_AT_EPOCH":19219,"BSTAR":0.00077819199,"MEAN_MOTION_DOT":0.00026675,"MEAN_MOTION_DDOT":0},{"OBJECT_NAME":"HJS-6C","OBJECT_ID":"2025-067C","EPOCH":"2026-03-09T22:46:43.472064","MEAN_MOTION":15.37673288,"ECCENTRICITY":0.00109563,"INCLINATION":54.9913,"RA_OF_ASC_NODE":108.3875,"ARG_OF_PERICENTER":78.2576,"MEAN_ANOMALY":281.968,"EPHEMERIS_TYPE":0,"CLASSIFICATION_TYPE":"U","NORAD_CAT_ID":63430,"ELEMENT_SET_NO":999,"REV_AT_EPOCH":5274,"BSTAR":0.000242496,"MEAN_MOTION_DOT":8.728e-5,"MEAN_MOTION_DDOT":0}]
